GLOBALSTAR M057         
1 25943U 99058A   25248.90417158 -.00000090  00000+0  29759-4 0  9995
2 25943  51.9973 119.1295 0002461 162.2998 197.7937 12.24826617176823
GLOBALSTAR M059         
1 25944U 99058B   25248.74777957 -.00000009  00000+0  95910-3 0  9995
2 25944  52.0050 349.2317 0001082 112.0885  58.6895 11.99984810583718
GLOBALSTAR M056         
1 25945U 99058C   25248.57686104 -.00000094  00000+0 -73579-4 0  9993
2 25945  51.9998 349.5913 0000708  23.8966  80.5031 12.04779181172312
GLOBALSTAR M031         
1 25946U 99058D   25248.95323855 -.00000060  00000+0  30988-3 0  9995
2 25946  51.9939 236.0559 0001454 349.5651  27.1215 12.16039769174375
GLOBALSTAR M039         
1 25961U 99062A   25248.84940692 -.00000094  00000+0  52356-4 0  9990
2 25961  51.9866  23.0327 0003028 152.5226 207.5801 12.62331459190406
GLOBALSTAR M034         
1 25962U 99062B   25248.97269302 -.00000067  00000+0  22133-3 0  9996
2 25962  51.9865 161.3911 0013601 192.7327 249.7384 11.79448271147928
GLOBALSTAR M029         
1 25963U 99062C   25248.67933922 -.00000072  00000+0  17325-3 0  9993
2 25963  51.9780 237.3828 0002462 280.6882 251.1307 11.99900682178783
GLOBALSTAR M061         
1 25964U 99062D   25248.74384187 -.00000072  00000+0  13759-3 0  9992
2 25964  51.9832 347.0923 0006565 116.3328 359.4304 11.76775561130660
